GPS BIIA-23 (PRN 18)    
1 22877U 93068A   18084.50977988  .00000021  00000-0  00000+0 0  9998
2 22877  54.3712  86.9378 0140855  73.8986  25.1836  2.00563122178872
GPS BIIR-2  (PRN 13)    
1 24876U 97035A   18084.26614215  .00000003  00000-0  00000+0 0  9991
2 24876  55.5007 216.0601 0033526  92.5274 267.8299  2.00565137151464
GPS BIIR-3  (PRN 11)    
1 25933U 99055A   18084.19651199 -.00000013  00000-0  00000+0 0  9996
2 25933  51.8323  65.3502 0164923 100.1226 133.8136  2.00568980135275
GPS BIIR-4  (PRN 20)    
1 26360U 00025A   18084.41672147 -.00000002  00000-0  00000+0 0  9999
2 26360  53.1750 143.1558 0040988 110.2632  15.2933  2.00428787130972
GPS BIIR-5  (PRN 28)    
1 26407U 00040A   18084.26726078 -.00000057  00000-0  00000+0 0  9994
2 26407  56.5207 334.1752 0198462 272.7487  41.1517  2.00563653129650
GPS BIIR-6  (PRN 14)    
1 26605U 00071A   18084.45297222 -.00000003  00000-0  00000+0 0  9994
2 26605  55.0733 213.6770 0097274 248.2938 104.2238  2.00554680127252
GPS BIIR-8  (PRN 16)    
1 27663U 03005A   18083.04750300 -.00000055  00000-0  00000+0 0  9991
2 27663  56.5867 333.9771 0098772  26.7400 244.2615  2.00572085110991
GPS BIIR-9  (PRN 21)    
1 27704U 03010A   18084.34389802  .00000019  00000-0  00000+0 0  9991
2 27704  54.0403  86.5584 0246957 269.5979 179.4772  2.00555472109810
GPS BIIR-10 (PRN 22)    
1 28129U 03058A   18083.45930619 -.00000004  00000-0  00000+0 0  9999
2 28129  52.9874 146.0721 0076251 269.0212  90.1693  2.00576288104497
GPS BIIR-11 (PRN 19)    
1 28190U 04009A   18084.26494571 -.00000055  00000-0  00000+0 0  9992
2 28190  56.1409  34.8107 0095747  64.8164 155.8238  2.00560030102697
GPS BIIR-12 (PRN 23)    
1 28361U 04023A   18084.15586084 -.00000005  00000-0  00000+0 0  9992
2 28361  54.0701 208.5148 0123305 224.2492 193.4445  2.00574623100770
GPS BIIR-13 (PRN 02)    
1 28474U 04045A   18084.28091219  .00000020  00000-0  00000+0 0  9992
2 28474  54.4116  86.1420 0180811 252.6708 256.4139  2.00559744 98135
GPS BIIRM-1 (PRN 17)    
1 28874U 05038A   18084.26460288 -.00000059  00000-0  00000+0 0  9996
2 28874  56.2857  32.1107 0125494 258.0581 340.9839  2.00551336 91531
GPS BIIRM-2 (PRN 31)    
1 29486U 06042A   18084.50216493  .00000037  00000-0  00000+0 0  9991
2 29486  55.2287 271.0194 0088323 350.6027 346.0946  2.00568553 84256
GPS BIIRM-3 (PRN 12)    
1 29601U 06052A   18083.98211422 -.00000054  00000-0  00000+0 0  9999
2 29601  56.5613 332.8580 0069187  52.9404 307.7331  2.00569815 83168
GPS BIIRM-4 (PRN 15)    
1 32260U 07047A   18084.29617589 -.00000012  00000-0  00000+0 0  9992
2 32260  53.1943 204.6064 0100547  37.5418 323.1378  2.00558645 76552
GPS BIIRM-5 (PRN 29)    
1 32384U 07062A   18084.36091031 -.00000059  00000-0  00000+0 0  9993
2 32384  56.3574  32.7092 0004673  29.6941 151.4206  2.00558495 75285
GPS BIIRM-6 (PRN 07)    
1 32711U 08012A   18084.20968070  .00000038  00000-0  00000+0 0  9998
2 32711  54.9612 270.3305 0114294 215.2465 143.9938  2.00562614 73462
GPS BIIRM-8 (PRN 05)    
1 35752U 09043A   18083.29345410 -.00000002  00000-0  00000+0 0  9998
2 35752  54.2982 148.1552 0051548  33.1208  56.1080  2.00564024 63035
GPS BIIF-1  (PRN 25)    
1 36585U 10022A   18084.28521563 -.00000050  00000-0  00000+0 0  9990
2 36585  55.8555 329.4668 0071971  46.3310 140.5995  2.00564288 57293
GPS BIIF-2  (PRN 01)    
1 37753U 11036A   18084.46696939  .00000027  00000-0  00000+0 0  9997
2 37753  55.6122  89.5602 0073748  33.4430  11.9488  2.00563749 48980
GPS BIIF-3  (PRN 24)    
1 38833U 12053A   18083.89299141  .00000038  00000-0  00000+0 0  9999
2 38833  53.9909 266.9832 0067769  29.2616 331.1132  2.00565477 40047
GPS BIIF-4  (PRN 27)    
1 39166U 13023A   18084.24694646 -.00000064  00000-0  00000+0 0  9996
2 39166  55.9854  29.0350 0056454  19.3150 340.8902  2.00563038 35589
GPS BIIF-5  (PRN 30)    
1 39533U 14008A   18084.24429314  .00000034  00000-0  00000+0 0  9992
2 39533  54.1375 272.3063 0031711 184.7045 175.2697  2.00553255 29943
GPS BIIF-6  (PRN 06)    
1 39741U 14026A   18084.03016669  .00000026  00000-0  00000+0 0  9996
2 39741  55.5963  89.1002 0014133 289.4958  70.3844  2.00572948 28223
GPS BIIF-7  (PRN 09)    
1 40105U 14045A   18084.12192585 -.00000004  00000-0  00000+0 0  9992
2 40105  54.5953 208.5753 0008710 106.9742 253.1013  2.00565043 26679
GPS BIIF-8  (PRN 03)    
1 40294U 14068A   18083.98712374 -.00000004  00000-0  00000+0 0  9993
2 40294  55.0488 149.3272 0011622  17.4917 342.6103  2.00549247 24895
GPS BIIF-9  (PRN 26)    
1 40534U 15013A   18083.13066114 -.00000049  00000-0  00000+0 0  9991
2 40534  54.8003 328.3214 0027570 359.4510   0.5907  2.00568632 21948
GPS BIIF-10  (PRN 08)   
1 40730U 15033A   18083.79578787 -.00000062  00000-0  00000+0 0  9992
2 40730  55.5166  28.5975 0035407 328.5724  31.2111  2.00551005 19715
GPS BIIF-11  (PRN 10)   
1 41019U 15062A   18083.34354440 -.00000002  00000-0  00000-0 0  9999
2 41019  55.0548 149.1528 0034793 204.1764 155.7229  2.00564122 17522
GPS BIIF-12  (PRN 32)   
1 41328U 16007A   18082.93267614  .00000014  00000-0  00000+0 0  9993
2 41328  54.8477 208.8896 0019803 214.1725 145.6834  2.00566255 15579
